{
  "type": "FeatureCollection",
  "features": [
    {
      "type": "Feature",
      "properties": {
        "norad_id": 37867,
        "name": "COSMOS 2476 (744)",
        "group": "glo-ops",
        "lat": 45.72929455967535,
        "lon": 107.08285258300046,
        "alt_km": 19187.083598187073,
        "timestamp": "2025-12-24T22:42:22.292005+00:00",
        "meta_object_name": "COSMOS 2476 (744)",
        "meta_object_id": "2011-064A",
        "meta_epoch": "2025-12-23T12:51:54.046080",
        "meta_mean_motion": 2.13103692,
        "meta_eccentricity": 0.00245495,
        "meta_inclination": 65.1675,
        "meta_ra_of_asc_node": 78.8064,
        "meta_arg_of_pericenter": 235.5256,
        "meta_mean_anomaly": 174.828,
        "meta_ephemeris_type": 0,
        "meta_classification_type": "U",
        "meta_norad_cat_id": 37867,
        "meta_element_set_no": 999,
        "meta_rev_at_epoch": 11002,
        "meta_bstar": 0,
        "meta_mean_motion_dot": 1e-08,
        "meta_mean_motion_ddot": 0,
        "tle_line1": "1 37867U 11064A   25357.53604220  .00000001  00000+0  00000+0 0  9996",
        "tle_line2": "2 37867  65.1675  78.8064 0024549 235.5256 174.8280  2.13103692110029"
      },
      "geometry": {
        "type": "Point",
        "coordinates": [
          107.08285258300046,
          45.72929455967535
        ]
      }
    },
    {
      "type": "Feature",
      "properties": {
        "norad_id": 37868,
        "name": "COSMOS 2477 (745)",
        "group": "glo-ops",
        "lat": -46.45250561704521,
        "lon": -72.05718629585172,
        "alt_km": 19080.382850986207,
        "timestamp": "2025-12-24T22:42:22.292016+00:00",
        "meta_object_name": "COSMOS 2477 (745)",
        "meta_object_id": "2011-064B",
        "meta_epoch": "2025-12-23T05:19:57.056160",
        "meta_mean_motion": 2.13103036,
        "meta_eccentricity": 0.00215459,
        "meta_inclination": 65.1742,
        "meta_ra_of_asc_node": 78.8944,
        "meta_arg_of_pericenter": 235.4149,
        "meta_mean_anomaly": 115.0574,
        "meta_ephemeris_type": 0,
        "meta_classification_type": "U",
        "meta_norad_cat_id": 37868,
        "meta_element_set_no": 999,
        "meta_rev_at_epoch": 11000,
        "meta_bstar": 0,
        "meta_mean_motion_dot": 0,
        "meta_mean_motion_ddot": 0,
        "tle_line1": "1 37868U 11064B   25357.22218815  .00000000  00000+0  00000+0 0  9993",
        "tle_line2": "2 37868  65.1742  78.8944 0021545 235.4149 115.0574  2.13103036110008"
      },
      "geometry": {
        "type": "Point",
        "coordinates": [
          -72.05718629585172,
          -46.45250561704521
        ]
      }
    },
    {
      "type": "Feature",
      "properties": {
        "norad_id": 37869,
        "name": "COSMOS 2475 (743)",
        "group": "glo-ops",
        "lat": -7.825549332655089,
        "lon": -97.48976490897924,
        "alt_km": 19097.76762553285,
        "timestamp": "2025-12-24T22:42:22.292028+00:00",
        "meta_object_name": "COSMOS 2475 (743)",
        "meta_object_id": "2011-064C",
        "meta_epoch": "2025-12-24T08:29:46.345632",
        "meta_mean_motion": 2.13101649,
        "meta_eccentricity": 0.00267385,
        "meta_inclination": 65.1815,
        "meta_ra_of_asc_node": 78.8765,
        "meta_arg_of_pericenter": 249.1683,
        "meta_mean_anomaly": 205.4891,
        "meta_ephemeris_type": 0,
        "meta_classification_type": "U",
        "meta_norad_cat_id": 37869,
        "meta_element_set_no": 999,
        "meta_rev_at_epoch": 11004,
        "meta_bstar": 0,
        "meta_mean_motion_dot": 1e-08,
        "meta_mean_motion_ddot": 0,
        "tle_line1": "1 37869U 11064C   25358.35400863  .00000001  00000+0  00000+0 0  9996",
        "tle_line2": "2 37869  65.1815  78.8765 0026738 249.1683 205.4891  2.13101649110043"
      },
      "geometry": {
        "type": "Point",
        "coordinates": [
          -97.48976490897924,
          -7.825549332655089
        ]
      }
    },
    {
      "type": "Feature",
      "properties": {
        "norad_id": 39155,
        "name": "COSMOS 2485 (747)",
        "group": "glo-ops",
        "lat": 63.4488943216556,
        "lon": -167.28540288508765,
        "alt_km": 19164.199256014137,
        "timestamp": "2025-12-24T22:42:22.292039+00:00",
        "meta_object_name": "COSMOS 2485 (747)",
        "meta_object_id": "2013-019A",
        "meta_epoch": "2025-12-23T21:02:08.451744",
        "meta_mean_motion": 2.13103232,
        "meta_eccentricity": 0.00250068,
        "meta_inclination": 65.319,
        "meta_ra_of_asc_node": 79.4928,
        "meta_arg_of_pericenter": 230.5113,
        "meta_mean_anomaly": 129.3147,
        "meta_ephemeris_type": 0,
        "meta_classification_type": "U",
        "meta_norad_cat_id": 39155,
        "meta_element_set_no": 999,
        "meta_rev_at_epoch": 9854,
        "meta_bstar": 0,
        "meta_mean_motion_dot": 2e-08,
        "meta_mean_motion_ddot": 0,
        "tle_line1": "1 39155U 13019A   25357.87648671  .00000002  00000+0  00000+0 0  9996",
        "tle_line2": "2 39155  65.3190  79.4928 0025006 230.5113 129.3147  2.13103232 98546"
      },
      "geometry": {
        "type": "Point",
        "coordinates": [
          -167.28540288508765,
          63.4488943216556
        ]
      }
    },
    {
      "type": "Feature",
      "properties": {
        "norad_id": 39620,
        "name": "COSMOS 2492 (754)",
        "group": "glo-ops",
        "lat": 42.292194730833366,
        "lon": 115.23208339971787,
        "alt_km": 19161.297947682666,
        "timestamp": "2025-12-24T22:42:22.292050+00:00",
        "meta_object_name": "COSMOS 2492 (754)",
        "meta_object_id": "2014-012A",
        "meta_epoch": "2025-12-21T22:59:34.433088",
        "meta_mean_motion": 2.13103396,
        "meta_eccentricity": 0.00142426,
        "meta_inclination": 65.4026,
        "meta_ra_of_asc_node": 319.9579,
        "meta_arg_of_pericenter": 313.3292,
        "meta_mean_anomaly": 46.5466,
        "meta_ephemeris_type": 0,
        "meta_classification_type": "U",
        "meta_norad_cat_id": 39620,
        "meta_element_set_no": 999,
        "meta_rev_at_epoch": 9146,
        "meta_bstar": 0,
        "meta_mean_motion_dot": -4.2e-07,
        "meta_mean_motion_ddot": 0,
        "tle_line1": "1 39620U 14012A   25355.95803742 -.00000042  00000+0  00000+0 0  9991",
        "tle_line2": "2 39620  65.4026 319.9579 0014242 313.3292  46.5466  2.13103396 91463"
      },
      "geometry": {
        "type": "Point",
        "coordinates": [
          115.23208339971787,
          42.292194730833366
        ]
      }
    },
    {
      "type": "Feature",
      "properties": {
        "norad_id": 40001,
        "name": "COSMOS 2500 (755)",
        "group": "glo-ops",
        "lat": 0.3119487078844034,
        "lon": -40.25424524657172,
        "alt_km": 19145.376951992777,
        "timestamp": "2025-12-24T22:42:22.292065+00:00",
        "meta_object_name": "COSMOS 2500 (755)",
        "meta_object_id": "2014-032A",
        "meta_epoch": "2025-12-21T04:35:55.026240",
        "meta_mean_motion": 2.13106227,
        "meta_eccentricity": 0.00077299,
        "meta_inclination": 65.3386,
        "meta_ra_of_asc_node": 319.7453,
        "meta_arg_of_pericenter": 219.3736,
        "meta_mean_anomaly": 140.5635,
        "meta_ephemeris_type": 0,
        "meta_classification_type": "U",
        "meta_norad_cat_id": 40001,
        "meta_element_set_no": 999,
        "meta_rev_at_epoch": 8966,
        "meta_bstar": 0,
        "meta_mean_motion_dot": -4.7e-07,
        "meta_mean_motion_ddot": 0,
        "tle_line1": "1 40001U 14032A   25355.19160910 -.00000047  00000+0  00000+0 0  9992",
        "tle_line2": "2 40001  65.3386 319.7453 0007729 219.3736 140.5635  2.13106227 89663"
      },
      "geometry": {
        "type": "Point",
        "coordinates": [
          -40.25424524657172,
          0.3119487078844034
        ]
      }
    },
    {
      "type": "Feature",
      "properties": {
        "norad_id": 40315,
        "name": "COSMOS 2501 (702K)",
        "group": "glo-ops",
        "lat": 17.144161251625825,
        "lon": 7.59345546313256,
        "alt_km": 19090.880774778012,
        "timestamp": "2025-12-24T22:42:22.292078+00:00",
        "meta_object_name": "COSMOS 2501 (702K)",
        "meta_object_id": "2014-075A",
        "meta_epoch": "2025-12-19T02:31:27.452640",
        "meta_mean_motion": 2.13101513,
        "meta_eccentricity": 0.0020099,
        "meta_inclination": 63.6146,
        "meta_ra_of_asc_node": 196.6046,
        "meta_arg_of_pericenter": 204.1838,
        "meta_mean_anomaly": 155.7988,
        "meta_ephemeris_type": 0,
        "meta_classification_type": "U",
        "meta_norad_cat_id": 40315,
        "meta_element_set_no": 999,
        "meta_rev_at_epoch": 8601,
        "meta_bstar": 0,
        "meta_mean_motion_dot": 1.06e-06,
        "meta_mean_motion_ddot": 0,
        "tle_line1": "1 40315U 14075A   25353.10517885  .00000106  00000+0  00000+0 0  9998",
        "tle_line2": "2 40315  63.6146 196.6046 0020099 204.1838 155.7988  2.13101513 86014"
      },
      "geometry": {
        "type": "Point",
        "coordinates": [
          7.59345546313256,
          17.144161251625825
        ]
      }
    }
  ]
}